{
  "type": "FeatureCollection",
  "features": [
    {
      "type": "Feature",
      "properties": {
        "norad_id": 67067,
        "name": "HULIANWANG DIGUI-127",
        "group": "last-30-days",
        "lat": 1.450654500375537,
        "lon": 140.08959969109887,
        "alt_km": 808.3820613700354,
        "timestamp": "2025-12-24T18:55:54.779399+00:00",
        "meta_object_name": "HULIANWANG DIGUI-127",
        "meta_object_id": "2025-295J",
        "meta_epoch": "2025-12-22T15:39:07.411968",
        "meta_mean_motion": 14.26251195,
        "meta_eccentricity": 0.00108509,
        "meta_inclination": 50.0053,
        "meta_ra_of_asc_node": 330.3407,
        "meta_arg_of_pericenter": 289.3117,
        "meta_mean_anomaly": 70.6623,
        "meta_ephemeris_type": 0,
        "meta_classification_type": "U",
        "meta_norad_cat_id": 67067,
        "meta_element_set_no": 999,
        "meta_rev_at_epoch": 153,
        "meta_bstar": -0.00027534515,
        "meta_mean_motion_dot": -8.25e-06,
        "meta_mean_motion_ddot": 0,
        "tle_line1": "1 67067U 25295J   25356.65216912 -.00000825  00000+0 -27535-3 0  9993",
        "tle_line2": "2 67067  50.0053 330.3407 0010850 289.3117  70.6623 14.26251195  1535"
      },
      "geometry": {
        "type": "Point",
        "coordinates": [
          140.08959969109887,
          1.450654500375537
        ]
      }
    },
    {
      "type": "Feature",
      "properties": {
        "norad_id": 67068,
        "name": "CZ-12 R/B",
        "group": "last-30-days",
        "lat": 28.092206424179164,
        "lon": 113.39721354819018,
        "alt_km": 718.6640484219524,
        "timestamp": "2025-12-24T18:55:54.779409+00:00",
        "meta_object_name": "CZ-12 R/B",
        "meta_object_id": "2025-295K",
        "meta_epoch": "2025-12-24T06:37:29.321184",
        "meta_mean_motion": 14.41129728,
        "meta_eccentricity": 0.00568837,
        "meta_inclination": 49.9942,
        "meta_ra_of_asc_node": 322.2519,
        "meta_arg_of_pericenter": 177.271,
        "meta_mean_anomaly": 182.8531,
        "meta_ephemeris_type": 0,
        "meta_classification_type": "U",
        "meta_norad_cat_id": 67068,
        "meta_element_set_no": 999,
        "meta_rev_at_epoch": 177,
        "meta_bstar": 2.677507e-05,
        "meta_mean_motion_dot": -8e-07,
        "meta_mean_motion_ddot": 0,
        "tle_line1": "1 67068U 25295K   25358.27603381 -.00000080  00000+0  26775-4 0  9992",
        "tle_line2": "2 67068  49.9942 322.2519 0056883 177.2710 182.8531 14.41129728  1777"
      },
      "geometry": {
        "type": "Point",
        "coordinates": [
          113.39721354819018,
          28.092206424179164
        ]
      }
    },
    {
      "type": "Feature",
      "properties": {
        "norad_id": 67069,
        "name": "XIWANG-5 02",
        "group": "last-30-days",
        "lat": -16.02657059449568,
        "lon": -128.0948390644474,
        "alt_km": 517.0483761390433,
        "timestamp": "2025-12-24T18:55:54.779419+00:00",
        "meta_object_name": "XIWANG-5 02",
        "meta_object_id": "2025-296A",
        "meta_epoch": "2025-12-23T12:00:44.103744",
        "meta_mean_motion": 15.16891516,
        "meta_eccentricity": 0.00145566,
        "meta_inclination": 41.3523,
        "meta_ra_of_asc_node": 40.1941,
        "meta_arg_of_pericenter": 102.8792,
        "meta_mean_anomaly": 257.3656,
        "meta_ephemeris_type": 0,
        "meta_classification_type": "U",
        "meta_norad_cat_id": 67069,
        "meta_element_set_no": 999,
        "meta_rev_at_epoch": 159,
        "meta_bstar": 0.00060249038,
        "meta_mean_motion_dot": 0.00011945,
        "meta_mean_motion_ddot": 0,
        "tle_line1": "1 67069U 25296A   25357.50051046  .00011945  00000+0  60249-3 0  9998",
        "tle_line2": "2 67069  41.3523  40.1941 0014556 102.8792 257.3656 15.16891516  1599"
      },
      "geometry": {
        "type": "Point",
        "coordinates": [
          -128.0948390644474,
          -16.02657059449568
        ]
      }
    },
    {
      "type": "Feature",
      "properties": {
        "norad_id": 67070,
        "name": "DEAR-5",
        "group": "last-30-days",
        "lat": -19.026006918549342,
        "lon": -124.08391425289544,
        "alt_km": 517.9668323854276,
        "timestamp": "2025-12-24T18:55:54.779432+00:00",
        "meta_object_name": "DEAR-5",
        "meta_object_id": "2025-296B",
        "meta_epoch": "2025-12-23T23:03:08.623008",
        "meta_mean_motion": 15.16917161,
        "meta_eccentricity": 0.0016166,
        "meta_inclination": 41.3551,
        "meta_ra_of_asc_node": 37.5614,
        "meta_arg_of_pericenter": 107.8349,
        "meta_mean_anomaly": 252.4237,
        "meta_ephemeris_type": 0,
        "meta_classification_type": "U",
        "meta_norad_cat_id": 67070,
        "meta_element_set_no": 999,
        "meta_rev_at_epoch": 165,
        "meta_bstar": 0.0002755,
        "meta_mean_motion_dot": 5.352e-05,
        "meta_mean_motion_ddot": 0,
        "tle_line1": "1 67070U 25296B   25357.96051647  .00005352  00000+0  27550-3 0  9990",
        "tle_line2": "2 67070  41.3551  37.5614 0016166 107.8349 252.4237 15.16917161  1654"
      },
      "geometry": {
        "type": "Point",
        "coordinates": [
          -124.08391425289544,
          -19.026006918549342
        ]
      }
    },
    {
      "type": "Feature",
      "properties": {
        "norad_id": 67071,
        "name": "KZ-11 R/B",
        "group": "last-30-days",
        "lat": 41.21472324784268,
        "lon": 128.18949822987074,
        "alt_km": 196.81277594759285,
        "timestamp": "2025-12-24T18:55:54.779442+00:00",
        "meta_object_name": "KZ-11 R/B",
        "meta_object_id": "2025-296C",
        "meta_epoch": "2025-12-23T13:32:08.952864",
        "meta_mean_motion": 15.58172368,
        "meta_eccentricity": 0.0391123,
        "meta_inclination": 41.3042,
        "meta_ra_of_asc_node": 41.8002,
        "meta_arg_of_pericenter": 29.8317,
        "meta_mean_anomaly": 332.421,
        "meta_ephemeris_type": 0,
        "meta_classification_type": "U",
        "meta_norad_cat_id": 67071,
        "meta_element_set_no": 999,
        "meta_rev_at_epoch": 157,
        "meta_bstar": 0.0004340719,
        "meta_mean_motion_dot": 0.08905056,
        "meta_mean_motion_ddot": 7.462205e-06,
        "tle_line1": "1 67071U 25296C   25357.56399251  .08905056  74622-5  43407-3 0  9997",
        "tle_line2": "2 67071  41.3042  41.8002 0391123  29.8317 332.4210 15.58172368  1575"
      },
      "geometry": {
        "type": "Point",
        "coordinates": [
          128.18949822987074,
          41.21472324784268
        ]
      }
    },
    {
      "type": "Feature",
      "properties": {
        "norad_id": 67072,
        "name": "ELECTRON R/B",
        "group": "last-30-days",
        "lat": 60.854952128183676,
        "lon": -18.97623039113972,
        "alt_km": 140.69675585611913,
        "timestamp": "2025-12-24T18:55:54.779452+00:00",
        "meta_object_name": "ELECTRON R/B",
        "meta_object_id": "2025-297A",
        "meta_epoch": "2025-12-24T06:44:33.518400",
        "meta_mean_motion": 16.35808035,
        "meta_eccentricity": 0.00508603,
        "meta_inclination": 97.4545,
        "meta_ra_of_asc_node": 146.8421,
        "meta_arg_of_pericenter": 206.0696,
        "meta_mean_anomaly": 153.804,
        "meta_ephemeris_type": 0,
        "meta_classification_type": "U",
        "meta_norad_cat_id": 67072,
        "meta_element_set_no": 999,
        "meta_rev_at_epoch": 162,
        "meta_bstar": 0.0004607887,
        "meta_mean_motion_dot": 0.10667753,
        "meta_mean_motion_ddot": 2.046897e-06,
        "tle_line1": "1 67072U 25297A   25358.28094350  .10667753  20469-5  46079-3 0  9991",
        "tle_line2": "2 67072  97.4545 146.8421 0050860 206.0696 153.8040 16.35808035  1621"
      },
      "geometry": {
        "type": "Point",
        "coordinates": [
          -18.97623039113972,
          60.854952128183676
        ]
      }
    },
    {
      "type": "Feature",
      "properties": {
        "norad_id": 67073,
        "name": "RAISE-4",
        "group": "last-30-days",
        "lat": 35.272064564543335,
        "lon": 140.67674705509398,
        "alt_km": 546.3531531599956,
        "timestamp": "2025-12-24T18:55:54.779464+00:00",
        "meta_object_name": "RAISE-4",
        "meta_object_id": "2025-297B",
        "meta_epoch": "2025-12-24T04:26:03.238944",
        "meta_mean_motion": 15.07218541,
        "meta_eccentricity": 0.00115252,
        "meta_inclination": 97.4855,
        "meta_ra_of_asc_node": 145.4254,
        "meta_arg_of_pericenter": 277.8483,
        "meta_mean_anomaly": 82.1437,
        "meta_ephemeris_type": 0,
        "meta_classification_type": "U",
        "meta_norad_cat_id": 67073,
        "meta_element_set_no": 999,
        "meta_rev_at_epoch": 151,
        "meta_bstar": 0.00032127932,
        "meta_mean_motion_dot": 4.785e-05,
        "meta_mean_motion_ddot": 0,
        "tle_line1": "1 67073U 25297B   25358.18475971  .00004785  00000+0  32128-3 0  9995",
        "tle_line2": "2 67073  97.4855 145.4254 0011525 277.8483  82.1437 15.07218541  1517"
      },
      "geometry": {
        "type": "Point",
        "coordinates": [
          140.67674705509398,
          35.272064564543335
        ]
      }
    }
  ]
}